[Satellite]
VERSION=1.1
NAME=CZ-3B R/B
NICKNAME=CZ-3B R/B
TLE1=1 45345U 20017B   20098.07983295  .00025818  87937-6  18751-2 0  9991
TLE2=2 45345  28.4540 332.3193 7210436 197.2653 111.3048  2.39945532   680
STATUS=0
